{
  "type": "FeatureCollection",
  "features": [
    {
      "type": "Feature",
      "properties": {
        "norad_id": 38709,
        "name": "EXACTVIEW-1 (ADS-1B)",
        "group": "resource",
        "lat": 79.89710306211205,
        "lon": 32.44108581474598,
        "alt_km": 801.3958160304828,
        "timestamp": "2025-12-12T09:49:08.384834+00:00",
        "meta_object_name": "EXACTVIEW-1 (ADS-1B)",
        "meta_object_id": "2012-039C",
        "meta_epoch": "2025-12-12T04:21:53.212032",
        "meta_mean_motion": 14.2490778,
        "meta_eccentricity": 0.0010702,
        "meta_inclination": 98.9635,
        "meta_ra_of_asc_node": 94.5601,
        "meta_arg_of_pericenter": 355.8496,
        "meta_mean_anomaly": 4.2591,
        "meta_ephemeris_type": 0,
        "meta_classification_type": "U",
        "meta_norad_cat_id": 38709,
        "meta_element_set_no": 999,
        "meta_rev_at_epoch": 69607,
        "meta_bstar": 0.00013515,
        "meta_mean_motion_dot": 2.69e-06,
        "meta_mean_motion_ddot": 0,
        "tle_line1": "1 38709U 12039C   25346.18186588  .00000269  00000+0  13515-3 0  9991",
        "tle_line2": "2 38709  98.9635  94.5601 0010702 355.8496   4.2591 14.24907780696075"
      },
      "geometry": {
        "type": "Point",
        "coordinates": [
          32.44108581474598,
          79.89710306211205
        ]
      }
    },
    {
      "type": "Feature",
      "properties": {
        "norad_id": 38755,
        "name": "SPOT 6",
        "group": "resource",
        "lat": 71.62808655265118,
        "lon": 25.61313494563749,
        "alt_km": 690.0537010571015,
        "timestamp": "2025-12-12T09:49:08.384845+00:00",
        "meta_object_name": "SPOT 6",
        "meta_object_id": "2012-047A",
        "meta_epoch": "2025-12-12T04:32:39.168672",
        "meta_mean_motion": 14.58602917,
        "meta_eccentricity": 0.0001099,
        "meta_inclination": 98.1568,
        "meta_ra_of_asc_node": 50.9834,
        "meta_arg_of_pericenter": 96.5161,
        "meta_mean_anomaly": 263.6163,
        "meta_ephemeris_type": 0,
        "meta_classification_type": "U",
        "meta_norad_cat_id": 38755,
        "meta_element_set_no": 999,
        "meta_rev_at_epoch": 70579,
        "meta_bstar": 0.00018402,
        "meta_mean_motion_dot": 8.11e-06,
        "meta_mean_motion_ddot": 0,
        "tle_line1": "1 38755U 12047A   25346.18934223  .00000811  00000+0  18402-3 0  9991",
        "tle_line2": "2 38755  98.1568  50.9834 0001099  96.5161 263.6163 14.58602917705791"
      },
      "geometry": {
        "type": "Point",
        "coordinates": [
          25.61313494563749,
          71.62808655265118
        ]
      }
    },
    {
      "type": "Feature",
      "properties": {
        "norad_id": 39019,
        "name": "PLEIADES 1B",
        "group": "resource",
        "lat": -27.67504519312958,
        "lon": 63.39133821516335,
        "alt_km": 703.9188897757458,
        "timestamp": "2025-12-12T09:49:08.384856+00:00",
        "meta_object_name": "PLEIADES 1B",
        "meta_object_id": "2012-068A",
        "meta_epoch": "2025-12-12T05:00:27.715104",
        "meta_mean_motion": 14.58552837,
        "meta_eccentricity": 0.0001203,
        "meta_inclination": 98.179,
        "meta_ra_of_asc_node": 58.8682,
        "meta_arg_of_pericenter": 81.9798,
        "meta_mean_anomaly": 278.1538,
        "meta_ephemeris_type": 0,
        "meta_classification_type": "U",
        "meta_norad_cat_id": 39019,
        "meta_element_set_no": 999,
        "meta_rev_at_epoch": 69359,
        "meta_bstar": 0.00020161,
        "meta_mean_motion_dot": 8.92e-06,
        "meta_mean_motion_ddot": 0,
        "tle_line1": "1 39019U 12068A   25346.20865411  .00000892  00000+0  20161-3 0  9997",
        "tle_line2": "2 39019  98.1790  58.8682 0001203  81.9798 278.1538 14.58552837693597"
      },
      "geometry": {
        "type": "Point",
        "coordinates": [
          63.39133821516335,
          -27.67504519312958
        ]
      }
    },
    {
      "type": "Feature",
      "properties": {
        "norad_id": 39030,
        "name": "GOKTURK 2",
        "group": "resource",
        "lat": 12.164226671642062,
        "lon": 9.747713933463764,
        "alt_km": 645.2549191894177,
        "timestamp": "2025-12-12T09:49:08.384866+00:00",
        "meta_object_name": "GOKTURK 2",
        "meta_object_id": "2012-073A",
        "meta_epoch": "2025-12-12T04:10:42.233952",
        "meta_mean_motion": 14.75288938,
        "meta_eccentricity": 9.81e-05,
        "meta_inclination": 97.6893,
        "meta_ra_of_asc_node": 187.8555,
        "meta_arg_of_pericenter": 102.7002,
        "meta_mean_anomaly": 257.4317,
        "meta_ephemeris_type": 0,
        "meta_classification_type": "U",
        "meta_norad_cat_id": 39030,
        "meta_element_set_no": 999,
        "meta_rev_at_epoch": 69693,
        "meta_bstar": 0.00012321,
        "meta_mean_motion_dot": 7.87e-06,
        "meta_mean_motion_ddot": 0,
        "tle_line1": "1 39030U 12073A   25346.17409993  .00000787  00000+0  12321-3 0  9993",
        "tle_line2": "2 39030  97.6893 187.8555 0000981 102.7002 257.4317 14.75288938696935"
      },
      "geometry": {
        "type": "Point",
        "coordinates": [
          9.747713933463764,
          12.164226671642062
        ]
      }
    },
    {
      "type": "Feature",
      "properties": {
        "norad_id": 39084,
        "name": "LANDSAT 8",
        "group": "resource",
        "lat": 35.59134589814493,
        "lon": -119.58357585215549,
        "alt_km": 699.6556835579422,
        "timestamp": "2025-12-12T09:49:08.384876+00:00",
        "meta_object_name": "LANDSAT 8",
        "meta_object_id": "2013-008A",
        "meta_epoch": "2025-12-12T04:13:00.181056",
        "meta_mean_motion": 14.57113154,
        "meta_eccentricity": 0.000109,
        "meta_inclination": 98.2073,
        "meta_ra_of_asc_node": 54.2575,
        "meta_arg_of_pericenter": 88.4048,
        "meta_mean_anomaly": 271.7275,
        "meta_ephemeris_type": 0,
        "meta_classification_type": "U",
        "meta_norad_cat_id": 39084,
        "meta_element_set_no": 999,
        "meta_rev_at_epoch": 67066,
        "meta_bstar": 0.00015601,
        "meta_mean_motion_dot": 6.58e-06,
        "meta_mean_motion_ddot": 0,
        "tle_line1": "1 39084U 13008A   25346.17569654  .00000658  00000+0  15601-3 0  9993",
        "tle_line2": "2 39084  98.2073  54.2575 0001090  88.4048 271.7275 14.57113154670663"
      },
      "geometry": {
        "type": "Point",
        "coordinates": [
          -119.58357585215549,
          35.59134589814493
        ]
      }
    },
    {
      "type": "Feature",
      "properties": {
        "norad_id": 39086,
        "name": "SARAL",
        "group": "resource",
        "lat": 21.108233441937795,
        "lon": -6.32678319859917,
        "alt_km": 781.0522142811715,
        "timestamp": "2025-12-12T09:49:08.384894+00:00",
        "meta_object_name": "SARAL",
        "meta_object_id": "2013-009A",
        "meta_epoch": "2025-12-12T02:22:38.991360",
        "meta_mean_motion": 14.32756681,
        "meta_eccentricity": 0.0002855,
        "meta_inclination": 98.5503,
        "meta_ra_of_asc_node": 170.0379,
        "meta_arg_of_pericenter": 109.7601,
        "meta_mean_anomaly": 250.3891,
        "meta_ephemeris_type": 0,
        "meta_classification_type": "U",
        "meta_norad_cat_id": 39086,
        "meta_element_set_no": 999,
        "meta_rev_at_epoch": 66881,
        "meta_bstar": 9.0878e-05,
        "meta_mean_motion_dot": 2.04e-06,
        "meta_mean_motion_ddot": 0,
        "tle_line1": "1 39086U 13009A   25346.09906240  .00000204  00000+0  90878-4 0  9990",
        "tle_line2": "2 39086  98.5503 170.0379 0002855 109.7601 250.3891 14.32756681668819"
      },
      "geometry": {
        "type": "Point",
        "coordinates": [
          -6.32678319859917,
          21.108233441937795
        ]
      }
    },
    {
      "type": "Feature",
      "properties": {
        "norad_id": 39150,
        "name": "GAOFEN-1",
        "group": "resource",
        "lat": -63.28157160521751,
        "lon": -139.00759014472882,
        "alt_km": 649.7618925857796,
        "timestamp": "2025-12-12T09:49:08.384904+00:00",
        "meta_object_name": "GAOFEN-1",
        "meta_object_id": "2013-018A",
        "meta_epoch": "2025-12-12T05:27:51.366240",
        "meta_mean_motion": 14.76533007,
        "meta_eccentricity": 0.0018193,
        "meta_inclination": 97.9323,
        "meta_ra_of_asc_node": 56.8956,
        "meta_arg_of_pericenter": 144.5794,
        "meta_mean_anomaly": 215.6629,
        "meta_ephemeris_type": 0,
        "meta_classification_type": "U",
        "meta_norad_cat_id": 39150,
        "meta_element_set_no": 999,
        "meta_rev_at_epoch": 68065,
        "meta_bstar": 0.00022234,
        "meta_mean_motion_dot": 1.503e-05,
        "meta_mean_motion_ddot": 0,
        "tle_line1": "1 39150U 13018A   25346.22767785  .00001503  00000+0  22234-3 0  9999",
        "tle_line2": "2 39150  97.9323  56.8956 0018193 144.5794 215.6629 14.76533007680650"
      },
      "geometry": {
        "type": "Point",
        "coordinates": [
          -139.00759014472882,
          -63.28157160521751
        ]
      }
    }
  ]
}